COMMENT,ORIGINATOR,NORAD_CAT_ID,OBJECT_NAME,OBJECT_TYPE,CLASSIFICATION_TYPE,INTLDES,EPOCH,EPOCH_MICROSECONDS,MEAN_MOTION,ECCENTRICITY,INCLINATION,RA_OF_ASC_NODE,ARG_OF_PERICENTER,MEAN_ANOMALY,EPHEMERIS_TYPE,ELEMENT_SET_NO,REV_AT_EPOCH,BSTAR,MEAN_MOTION_DOT,MEAN_MOTION_DDOT,FILE,TLE_LINE0,TLE_LINE1,TLE_LINE2,OBJECT_ID,OBJECT_NUMBER,SEMIMAJOR_AXIS,PERIOD,APOGEE,PERIGEE,DECAYED
"GENERATED VIA SPACETRACK.ORG API","18 SPCS","48899","SPACEBEE-110","PAYLOAD","U","21059W","2022-08-15 19:30:12","223008","15.17232849","0.0007887","97.5648","357.5298","254.5926","105.4436","0","999","6294","0.00038104","0.00007518","0","3537351","0 SPACEBEE-110","1 48899U 21059W   22227.81264147  .00007518  00000-0  38104-3 0  9993","2 48899  97.5648 357.5298 0007887 254.5926 105.4436 15.17232849 62947","2021-059W","48899","6892.345","94.910","519.646","508.774","0"
"GENERATED VIA SPACETRACK.ORG API","18 SPCS","48899","SPACEBEE-110","PAYLOAD","U","21059W","2022-08-15 19:30:12","223008","15.17232849","0.0007887","97.5648","357.5298","254.5926","105.4436","0","999","6294","0.00038104","0.00007518","0","3537378","0 SPACEBEE-110","1 48899U 21059W   22227.81264147  .00007518  00000-0  38104-3 0  9993","2 48899  97.5648 357.5298 0007887 254.5926 105.4436 15.17232849 62947","2021-059W","48899","6892.345","94.910","519.646","508.774","0"
"GENERATED VIA SPACETRACK.ORG API","18 SPCS","48899","SPACEBEE-110","PAYLOAD","U","21059W","2022-08-16 08:09:57","719232","15.17239515","0.000792","97.5647","358.0565","252.5794","107.4574","0","999","6302","0.0003587","0.00007075","0","3537973","0 SPACEBEE-110","1 48899U 21059W   22228.34025138  .00007075  00000-0  35870-3 0  9992","2 48899  97.5647 358.0565 0007920 252.5794 107.4574 15.17239515 63020","2021-059W","48899","6892.325","94.909","519.649","508.731","0"
"GENERATED VIA SPACETRACK.ORG API","18 SPCS","48899","SPACEBEE-110","PAYLOAD","U","21059W","2022-08-16 19:14:44","824416","15.17247232","0.0007957","97.5646","358.5174","250.7861","109.2511","0","999","6309","0.00038952","0.00007691","0","3538178","0 SPACEBEE-110","1 48899U 21059W   22228.80190769  .00007691  00000-0  38952-3 0  9994","2 48899  97.5646 358.5174 0007957 250.7861 109.2511 15.17247232 63098","2021-059W","48899","6892.302","94.909","519.651","508.682","0"
"GENERATED VIA SPACETRACK.ORG API","18 SPCS","48899","SPACEBEE-110","PAYLOAD","U","21059W","2022-08-17 06:19:31","774944","15.17253045","0.0007995","97.5645","358.9783","249.0446","110.9931","0","999","6316","0.00037771","0.00007457","0","3538426","0 SPACEBEE-110","1 48899U 21059W   22229.26356221  .00007457  00000-0  37771-3 0  9990","2 48899  97.5645 358.9783 0007995 249.0446 110.9931 15.17253045 63161","2021-059W","48899","6892.284","94.908","519.659","508.639","0"
"GENERATED VIA SPACETRACK.ORG API","18 SPCS","48899","SPACEBEE-110","PAYLOAD","U","21059W","2022-08-17 14:14:22","342560","15.17259927","0.0008009","97.5645","359.3075","247.8643","112.174","0","999","6321","0.00045311","0.00008962","0","3538809","0 SPACEBEE-110","1 48899U 21059W   22229.59331415  .00008962  00000-0  45311-3 0  9995","2 48899  97.5645 359.3075 0008009 247.8643 112.1740 15.17259927 63215","2021-059W","48899","6892.263","94.908","519.648","508.608","0"
"GENERATED VIA SPACETRACK.ORG API","18 SPCS","48899","SPACEBEE-110","PAYLOAD","U","21059W","2022-08-18 07:39:01","93824","15.17277731","0.0008068","97.5643","0.0317","245.2174","114.822","0","999","6332","0.00061837","0.00012268","0","3539195","0 SPACEBEE-110","1 48899U 21059W   22230.31876266  .00012268  00000-0  61837-3 0  9990","2 48899  97.5643   0.0317 0008068 245.2174 114.8220 15.17277731 63325","2021-059W","48899","6892.209","94.907","519.635","508.514","0"
"GENERATED VIA SPACETRACK.ORG API","18 SPCS","48899","SPACEBEE-110","PAYLOAD","U","21059W","2022-08-18 13:58:53","254848","15.17279998","0.0008106","97.5644","0.2951","244.2591","115.7806","0","999","6336","0.0005434","0.00010771","0","3539281","0 SPACEBEE-110","1 48899U 21059W   22230.58256082  .00010771  00000-0  54340-3 0  9995","2 48899  97.5644   0.2951 0008106 244.2591 115.7806 15.17279998 63368","2021-059W","48899","6892.202","94.907","519.654","508.481","0"
"GENERATED VIA SPACETRACK.ORG API","18 SPCS","48899","SPACEBEE-110","PAYLOAD","U","21059W","2022-08-19 07:23:31","97184","15.1729714","0.0008111","97.5642","1.0193","241.395","118.6468","0","999","6347","0.00056816","0.00011271","0","3540406","0 SPACEBEE-110","1 48899U 21059W   22231.30799881  .00011271  00000-0  56816-3 0  9991","2 48899  97.5642   1.0193 0008111 241.3950 118.6468 15.17297140 63473","2021-059W","48899","6892.150","94.906","519.606","508.425","0"
"GENERATED VIA SPACETRACK.ORG API","18 SPCS","48899","SPACEBEE-110","PAYLOAD","U","21059W","2022-08-20 03:58:04","188864","15.17313011","0.0008125","97.5642","1.8751","237.9193","122.1252","0","999","6360","0.00050043","0.00009922","0","3540976","0 SPACEBEE-110","1 48899U 21059W   22232.16532626  .00009922  00000-0  50043-3 0  9994","2 48899  97.5642   1.8751 0008125 237.9193 122.1252 15.17313011 63608","2021-059W","48899","6892.102","94.905","519.567","508.368","0"
"GENERATED VIA SPACETRACK.ORG API","18 SPCS","48899","SPACEBEE-110","PAYLOAD","U","21059W","2022-08-20 08:42:57","869856","15.17316823","0.0008097","97.5642","2.0726","237.1361","122.9094","0","999","6363","0.0004888","0.00009691","0","3541419","0 SPACEBEE-110","1 48899U 21059W   22232.36316979  .00009691  00000-0  48880-3 0  9996","2 48899  97.5642   2.0726 0008097 237.1361 122.9094 15.17316823 63639","2021-059W","48899","6892.091","94.904","519.536","508.375","0"
"GENERATED VIA SPACETRACK.ORG API","18 SPCS","48899","SPACEBEE-110","PAYLOAD","U","21059W","2022-08-20 21:22:40","888128","15.17321571","0.0008118","97.5643","2.5993","234.9909","125.0563","0","999","6371","0.00034579","0.00006834","0","3541760","0 SPACEBEE-110","1 48899U 21059W   22232.89075102  .00006834  00000-0  34579-3 0  9990","2 48899  97.5643   2.5993 0008118 234.9909 125.0563 15.17321571 63718","2021-059W","48899","6892.076","94.904","519.536","508.346","0"
"GENERATED VIA SPACETRACK.ORG API","18 SPCS","48899","SPACEBEE-110","PAYLOAD","U","21059W","2022-08-21 08:27:25","820352","15.17329321","0.0008131","97.5642","3.0601","233.1134","126.9355","0","999","6378","0.00036072","0.00007134","0","3542267","0 SPACEBEE-110","1 48899U 21059W   22233.35238218  .00007134  00000-0  36072-3 0  9995","2 48899  97.5642   3.0601 0008131 233.1134 126.9355 15.17329321 63782","2021-059W","48899","6892.053","94.904","519.522","508.314","0"
"GENERATED VIA SPACETRACK.ORG API","18 SPCS","48899","SPACEBEE-110","PAYLOAD","U","21059W","2022-08-21 08:27:25","820352","15.17329321","0.0008131","97.5642","3.0601","233.1134","126.9355","0","999","6378","0.00036072","0.00007134","0","3542305","0 SPACEBEE-110","1 48899U 21059W   22233.35238218  .00007134  00000-0  36072-3 0  9995","2 48899  97.5642   3.0601 0008131 233.1134 126.9355 15.17329321 63782","2021-059W","48899","6892.053","94.904","519.522","508.314","0"
"GENERATED VIA SPACETRACK.ORG API","18 SPCS","48899","SPACEBEE-110","PAYLOAD","U","21059W","2022-08-21 21:07:08","403168","15.173368","0.0008182","97.5642","3.5865","230.8297","129.221","0","999","6386","0.00035184","0.00006958","0","3542671","0 SPACEBEE-110","1 48899U 21059W   22233.87995837  .00006958  00000-0  35184-3 0  9995","2 48899  97.5642   3.5865 0008182 230.8297 129.2210 15.17336800 63864","2021-059W","48899","6892.030","94.903","519.534","508.256","0"
"GENERATED VIA SPACETRACK.ORG API","18 SPCS","48899","SPACEBEE-110","PAYLOAD","U","21059W","2022-08-22 08:11:53","26944","15.17340519","0.0008233","97.5642","4.0474","229.2046","130.8474","0","999","6393","0.00028655","0.00005654","0","3543757","0 SPACEBEE-110","1 48899U 21059W   22234.34158596  .00005654  00000-0  28655-3 0  9998","2 48899  97.5642   4.0474 0008233 229.2046 130.8474 15.17340519 63937","2021-059W","48899","6892.019","94.903","519.558","508.210","0"
"GENERATED VIA SPACETRACK.ORG API","18 SPCS","48899","SPACEBEE-110","PAYLOAD","U","21059W","2022-08-23 07:56:19","651200","15.17349694","0.0008329","97.5643","5.0348","225.5837","134.4715","0","999","6408","0.00022408","0.00004407","0","3545007","0 SPACEBEE-110","1 48899U 21059W   22235.33078300  .00004407  00000-0  22408-3 0  9997","2 48899  97.5643   5.0348 0008329 225.5837 134.4715 15.17349694 64080","2021-059W","48899","6891.991","94.902","519.597","508.116","0"
"GENERATED VIA SPACETRACK.ORG API","18 SPCS","48899","SPACEBEE-110","PAYLOAD","U","21059W","2022-08-23 07:56:19","651200","15.17349694","0.0008329","97.5643","5.0348","225.5837","134.4715","0","999","6408","0.00022408","0.00004407","0","3545070","0 SPACEBEE-110","1 48899U 21059W   22235.33078300  .00004407  00000-0  22408-3 0  9997","2 48899  97.5643   5.0348 0008329 225.5837 134.4715 15.17349694 64080","2021-059W","48899","6891.991","94.902","519.597","508.116","0"
"GENERATED VIA SPACETRACK.ORG API","18 SPCS","48899","SPACEBEE-110","PAYLOAD","U","21059W","2022-08-23 20:36:01","669824","15.17355185","0.000835","97.5644","5.5614","223.5035","136.554","0","999","6416","0.00024415","0.00004808","0","3545624","0 SPACEBEE-110","1 48899U 21059W   22235.85835266  .00004808  00000-0  24415-3 0  9991","2 48899  97.5644   5.5614 0008350 223.5035 136.5540 15.17355185 64164","2021-059W","48899","6891.975","94.902","519.594","508.085","0"
"GENERATED VIA SPACETRACK.ORG API","18 SPCS","48899","SPACEBEE-110","PAYLOAD","U","21059W","2022-08-24 07:40:45","784704","15.17359717","0.0008391","97.5646","6.0224","221.8683","138.191","0","999","6423","0.00024266","0.00004779","0","3546350","0 SPACEBEE-110","1 48899U 21059W   22236.31997436  .00004779  00000-0  24266-3 0  9992","2 48899  97.5646   6.0224 0008391 221.8683 138.1910 15.17359717 64236","2021-059W","48899","6891.961","94.902","519.609","508.043","0"
